{"type": "FeatureCollection", "features": [ {"type": "Feature", "properties": {"norad_id": 34077, "name": "IRIDIUM 33 DEB", "group": "iridium-33-debris", "lat": -34.35993362168356, "lon": -121.98217620725637, "alt_km": 691.1748895559149, "timestamp": "2025-12-03T13:52:09.951298+00:00", "meta": {"OBJECT_NAME": "IRIDIUM 33 DEB", "OBJECT_ID": "1997-051CL", "EPOCH": "2025-12-03T04:49:49.513728", "MEAN_MOTION": 14.64572021, "ECCENTRICITY": 0.00109608, "INCLINATION": 86.3873, "RA_OF_ASC_NODE": 55.7079, "ARG_OF_PERICENTER": 69.3732, "MEAN_ANOMALY": 320.4311, "EPHEMERIS_TYPE": 0, "CLASSIFICATION_TYPE": "U", "NORAD_CAT_ID": 34077, "ELEMENT_SET_NO": 999, "REV_AT_EPOCH": 88193, "BSTAR": 0.0022894081, "MEAN_MOTION_DOT": 0.0001219, "MEAN_MOTION_DDOT": 0}, "tle": {"line1": "1 34077U 97051CL  25337.20126752  .00012190  00000+0  22894-2 0  9997", "line2": "2 34077  86.3873  55.7079 0010960  69.3732 320.4311 14.64572021881932"}}, "geometry": {"type": "Point", "coordinates": [-121.98217620725637, -34.35993362168356]}}, {"type": "Feature", "properties": {"norad_id": 34079, "name": "IRIDIUM 33 DEB", "group": "iridium-33-debris", "lat": -47.10987043182342, "lon": 8.918734196772066, "alt_km": 625.7360527577948, "timestamp": "2025-12-03T13:52:09.951309+00:00", "meta": {"OBJECT_NAME": "IRIDIUM 33 DEB", "OBJECT_ID": "1997-051CN", "EPOCH": "2025-12-03T02:59:12.787584", "MEAN_MOTION": 14.83124546, "ECCENTRICITY": 0.000675, "INCLINATION": 86.3786, "RA_OF_ASC_NODE": 13.034, "ARG_OF_PERICENTER": 37.1097, "MEAN_ANOMALY": 16.3841, "EPHEMERIS_TYPE": 0, "CLASSIFICATION_TYPE": "U", "NORAD_CAT_ID": 34079, "ELEMENT_SET_NO": 999, "REV_AT_EPOCH": 88835, "BSTAR": 0.0021590611, "MEAN_MOTION_DOT": 0.0001765, "MEAN_MOTION_DDOT": 0}, "tle": {"line1": "1 34079U 97051CN  25337.12445356  .00017650  00000+0  21591-2 0  9993", "line2": "2 34079  86.3786  13.0340 0006750  37.1097  16.3841 14.83124546888352"}}, "geometry": {"type": "Point", "coordinates": [8.918734196772066, -47.10987043182342]}}, {"type": "Feature", "properties": {"norad_id": 34088, "name": "IRIDIUM 33 DEB", "group": "iridium-33-debris", "lat": 29.09117298253116, "lon": -147.0837308042542, "alt_km": 592.8737901481945, "timestamp": "2025-12-03T13:52:09.951320+00:00", "meta": {"OBJECT_NAME": "IRIDIUM 33 DEB", "OBJECT_ID": "1997-051CX", "EPOCH": "2025-12-03T05:25:37.193952", "MEAN_MOTION": 14.90617457, "ECCENTRICITY": 0.00051765, "INCLINATION": 86.3861, "RA_OF_ASC_NODE": 35.0928, "ARG_OF_PERICENTER": 211.8675, "MEAN_ANOMALY": 212.503, "EPHEMERIS_TYPE": 0, "CLASSIFICATION_TYPE": "U", "NORAD_CAT_ID": 34088, "ELEMENT_SET_NO": 999, "REV_AT_EPOCH": 88600, "BSTAR": 0.0033568861, "MEAN_MOTION_DOT": 0.00033009, "MEAN_MOTION_DDOT": 0}, "tle": {"line1": "1 34088U 97051CX  25337.22612493  .00033009  00000+0  33569-2 0  9996", "line2": "2 34088  86.3861  35.0928 0005176 211.8675 212.5030 14.90617457886002"}}, "geometry": {"type": "Point", "coordinates": [-147.0837308042542, 29.09117298253116]}}, {"type": "Feature", "properties": {"norad_id": 34091, "name": "IRIDIUM 33 DEB", "group": "iridium-33-debris", "lat": -62.071912931628, "lon": 64.09446204930829, "alt_km": 614.2141060817612, "timestamp": "2025-12-03T13:52:09.951331+00:00", "meta": {"OBJECT_NAME": "IRIDIUM 33 DEB", "OBJECT_ID": "1997-051DA", "EPOCH": "2025-12-03T06:02:18.919104", "MEAN_MOTION": 14.80605011, "ECCENTRICITY": 0.00330393, "INCLINATION": 86.3421, "RA_OF_ASC_NODE": 71.1749, "ARG_OF_PERICENTER": 327.3284, "MEAN_ANOMALY": 32.5893, "EPHEMERIS_TYPE": 0, "CLASSIFICATION_TYPE": "U", "NORAD_CAT_ID": 34091, "ELEMENT_SET_NO": 999, "REV_AT_EPOCH": 87726, "BSTAR": 0.0064087876, "MEAN_MOTION_DOT": 0.00049947, "MEAN_MOTION_DDOT": 0}, "tle": {"line1": "1 34091U 97051DA  25337.25160786  .00049947  00000+0  64088-2 0  9994", "line2": "2 34091  86.3421  71.1749 0033039 327.3284  32.5893 14.80605011877265"}}, "geometry": {"type": "Point", "coordinates": [64.09446204930829, -62.071912931628]}}, {"type": "Feature", "properties": {"norad_id": 34097, "name": "IRIDIUM 33 DEB", "group": "iridium-33-debris", "lat": -80.80784068884593, "lon": -18.79206998691043, "alt_km": 807.1110875908798, "timestamp": "2025-12-03T13:52:09.951341+00:00", "meta": {"OBJECT_NAME": "IRIDIUM 33 DEB", "OBJECT_ID": "1997-051DG", "EPOCH": "2025-12-03T02:31:49.025856", "MEAN_MOTION": 14.34656828, "ECCENTRICITY": 0.00837026, "INCLINATION": 86.2008, "RA_OF_ASC_NODE": 5.6603, "ARG_OF_PERICENTER": 33.4512, "MEAN_ANOMALY": 327.1931, "EPHEMERIS_TYPE": 0, "CLASSIFICATION_TYPE": "U", "NORAD_CAT_ID": 34097, "ELEMENT_SET_NO": 999, "REV_AT_EPOCH": 86981, "BSTAR": 0.0016815085, "MEAN_MOTION_DOT": 4.966e-05, "MEAN_MOTION_DDOT": 0}, "tle": {"line1": "1 34097U 97051DG  25337.10542854  .00004966  00000+0  16815-2 0  9991", "line2": "2 34097  86.2008   5.6603 0083702  33.4512 327.1931 14.34656828869812"}}, "geometry": {"type": "Point", "coordinates": [-18.79206998691043, -80.80784068884593]}}, {"type": "Feature", "properties": {"norad_id": 34145, "name": "IRIDIUM 33 DEB", "group": "iridium-33-debris", "lat": -58.854315232592214, "lon": -29.687572496221645, "alt_km": 797.8890033589823, "timestamp": "2025-12-03T13:52:09.951352+00:00", "meta": {"OBJECT_NAME": "IRIDIUM 33 DEB", "OBJECT_ID": "1997-051DY", "EPOCH": "2025-12-03T00:49:25.530528", "MEAN_MOTION": 14.42178924, "ECCENTRICITY": 0.00552702, "INCLINATION": 86.2113, "RA_OF_ASC_NODE": 336.8496, "ARG_OF_PERICENTER": 124.685, "MEAN_ANOMALY": 235.9576, "EPHEMERIS_TYPE": 0, "CLASSIFICATION_TYPE": "U", "NORAD_CAT_ID": 34145, "ELEMENT_SET_NO": 999, "REV_AT_EPOCH": 87498, "BSTAR": 0.0013049422, "MEAN_MOTION_DOT": 4.395e-05, "MEAN_MOTION_DDOT": 0}, "tle": {"line1": "1 34145U 97051DY  25337.03432327  .00004395  00000+0  13049-2 0  9992", "line2": "2 34145  86.2113 336.8496 0055270 124.6850 235.9576 14.42178924874989"}}, "geometry": {"type": "Point", "coordinates": [-29.687572496221645, -58.854315232592214]}}, {"type": "Feature", "properties": {"norad_id": 34146, "name": "IRIDIUM 33 DEB", "group": "iridium-33-debris", "lat": 75.49986741825765, "lon": 8.403711838225504, "alt_km": 739.7836559779107, "timestamp": "2025-12-03T13:52:09.951363+00:00", "meta": {"OBJECT_NAME": "IRIDIUM 33 DEB", "OBJECT_ID": "1997-051DZ", "EPOCH": "2025-12-03T02:11:34.446624", "MEAN_MOTION": 14.48936814, "ECCENTRICITY": 0.00249757, "INCLINATION": 86.2837, "RA_OF_ASC_NODE": 354.0631, "ARG_OF_PERICENTER": 256.2583, "MEAN_ANOMALY": 163.5864, "EPHEMERIS_TYPE": 0, "CLASSIFICATION_TYPE": "U", "NORAD_CAT_ID": 34146, "ELEMENT_SET_NO": 999, "REV_AT_EPOCH": 87967, "BSTAR": 0.0012850405, "MEAN_MOTION_DOT": 4.904e-05, "MEAN_MOTION_DDOT": 0}, "tle": {"line1": "1 34146U 97051DZ  25337.09137091  .00004904  00000+0  12850-2 0  9994", "line2": "2 34146  86.2837 354.0631 0024975 256.2583 163.5864 14.48936814879672"}}, "geometry": {"type": "Point", "coordinates": [8.403711838225504, 75.49986741825765]}}, {"type": "Feature", "properties": {"norad_id": 34159, "name": "IRIDIUM 33 DEB", "group": "iridium-33-debris", "lat": 42.36913413724972, "lon": -131.18922588494826, "alt_km": 779.1507022748674, "timestamp": "2025-12-03T13:52:09.951374+00:00", "meta": {"OBJECT_NAME": "IRIDIUM 33 DEB", "OBJECT_ID": "1997-051EN", "EPOCH": "2025-12-03T04:53:03.077376", "MEAN_MOTION": 14.38453701, "ECCENTRICITY": 0.00265219, "INCLINATION": 86.3516, "RA_OF_ASC_NODE": 52.3067, "ARG_OF_PERICENTER": 321.2041, "MEAN_ANOMALY": 38.7252, "EPHEMERIS_TYPE": 0, "CLASSIFICATION_TYPE": "U", "NORAD_CAT_ID": 34159, "ELEMENT_SET_NO": 999, "REV_AT_EPOCH": 87822, "BSTAR": 0.00054030161, "MEAN_MOTION_DOT": 1.674e-05, "MEAN_MOTION_DDOT": 0}, "tle": {"line1": "1 34159U 97051EN  25337.20350784  .00001674  00000+0  54030-3 0  9995", "line2": "2 34159  86.3516  52.3067 0026521 321.2041  38.7252 14.38453701878225"}}, "geometry": {"type": "Point", "coordinates": [-131.18922588494826, 42.36913413724972]}}, {"type": "Feature", "properties": {"norad_id": 34350, "name": "IRIDIUM 33 DEB", "group": "iridium-33-debris", "lat": -60.54850010782764, "lon": 0.2527277468994596, "alt_km": 759.1328410483402, "timestamp": "2025-12-03T13:52:09.951384+00:00", "meta": {"OBJECT_NAME": "IRIDIUM 33 DEB", "OBJECT_ID": "1997-051ES", "EPOCH": "2025-12-03T02:46:10.970400", "MEAN_MOTION": 14.45350997, "ECCENTRICITY": 0.00218335, "INCLINATION": 86.3282, "RA_OF_ASC_NODE": 6.9833, "ARG_OF_PERICENTER": 165.5973, "MEAN_ANOMALY": 248.6185, "EPHEMERIS_TYPE": 0, "CLASSIFICATION_TYPE": "U", "NORAD_CAT_ID": 34350, "ELEMENT_SET_NO": 999, "REV_AT_EPOCH": 88154, "BSTAR": 0.00041343011, "MEAN_MOTION_DOT": 1.476e-05, "MEAN_MOTION_DDOT": 0}, "tle": {"line1": "1 34350U 97051ES  25337.11540475  .00001476  00000+0  41343-3 0  9999", "line2": "2 34350  86.3282   6.9833 0021833 165.5973 248.6185 14.45350997881545"}}, "geometry": {"type": "Point", "coordinates": [0.2527277468994596, -60.54850010782764]}}, {"type": "Feature", "properties": {"norad_id": 34366, "name": "IRIDIUM 33 DEB", "group": "iridium-33-debris", "lat": -16.923654643476628, "lon": 52.190497652907155, "alt_km": 733.2050121272432, "timestamp": "2025-12-03T13:52:09.951395+00:00", "meta": {"OBJECT_NAME": "IRIDIUM 33 DEB", "OBJECT_ID": "1997-051FJ", "EPOCH": "2025-12-03T05:56:14.838144", "MEAN_MOTION": 14.53909493, "ECCENTRICITY": 0.00217162, "INCLINATION": 86.371, "RA_OF_ASC_NODE": 53.4406, "ARG_OF_PERICENTER": 170.2088, "MEAN_ANOMALY": 244.1794, "EPHEMERIS_TYPE": 0, "CLASSIFICATION_TYPE": "U", "NORAD_CAT_ID": 34366, "ELEMENT_SET_NO": 999, "REV_AT_EPOCH": 88044, "BSTAR": 0.0017347215, "MEAN_MOTION_DOT": 7.341e-05, "MEAN_MOTION_DDOT": 0}, "tle": {"line1": "1 34366U 97051FJ  25337.24739396  .00007341  00000+0  17347-2 0  9995", "line2": "2 34366  86.3710  53.4406 0021716 170.2088 244.1794 14.53909493880446"}}, "geometry": {"type": "Point", "coordinates": [52.190497652907155, -16.923654643476628]}}]}